GLOBALSTAR M045         
1 25676U 99019A   25182.62200850 -.00000076  00000+0  15856-3 0  9996
2 25676  51.9967 264.1290 0000612 178.9853 332.6692 12.27063172195163
GLOBALSTAR M019         
1 25677U 99019B   25182.91190300 -.00000112  00000+0 -23006-3 0  9995
2 25677  51.9894  34.7016 0001584  22.7777 350.4145 12.13872916187127
GLOBALSTAR M044         
1 25678U 99019C   25182.78179293 -.00000026  00000+0  80815-3 0  9993
2 25678  51.9991 348.2516 0006849  72.5083 300.9033 11.90254794173062
GLOBALSTAR M042         
1 25679U 99019D   25182.70794330 -.00000106  00000+0 -12630-3 0  9991
2 25679  52.0034   9.9618 0002631 346.4994  94.3618 12.22083957187038
GLOBALSTAR M025         
1 25770U 99031A   25182.57974620 -.00000049  00000+0  58029-3 0  9991
2 25770  51.9799 125.9288 0001234 176.0908 354.6634 11.22558856140985
GLOBALSTAR M049         
1 25771U 99031B   25182.64012662 -.00000009  00000+0  19637-2 0  9996
2 25771  51.9835 161.2797 0002953  23.4190 336.6741 11.12116694119032
GLOBALSTAR M047         
1 25772U 99031C   25182.63175274 -.00000060  00000+0  25339-3 0  9999
2 25772  51.9801 156.8877 0016817 288.4607  71.4371 11.31928926472748
GLOBALSTAR M052         
1 25773U 99031D   25182.55922662 -.00000080  00000+0 -46954-3 0  9991
2 25773  51.9868 269.9378 0003044 192.9020 181.4226 11.15059887480114
